KUIPER-00095            
1 65134U 25171C   26027.83335647 -.00996416  00000+0 -10490+0 0  9990
2 65134  51.8951 326.3703 0004235 351.4766 175.7563 14.91950864  3712
KUIPER-00096            
1 65135U 25171D   26027.07899005  .00007550  00000+0  10190-2 0  9990
2 65135  51.9030 342.0916 0002272  67.8566 292.2637 14.79905436 26733
KUIPER-00097            
1 65136U 25171E   26027.07580522  .00009810  00000+0  13085-2 0  9999
2 65136  51.9040 344.7172 0002864  50.2706 309.8509 14.80109068 26683
KUIPER-00098            
1 65137U 25171F   26027.07280223  .00009440  00000+0  12596-2 0  9990
2 65137  51.9029 347.1102 0007078   8.2808 351.8270 14.80122796 26000
KUIPER-00099            
1 65138U 25171G   26027.05059166  .00008443  00000+0  11346-2 0  9993
2 65138  51.9043 337.1904 0001414  92.9478 267.1646 14.79953047 26798
KUIPER-00100            
1 65139U 25171H   26027.15455189  .00000828  00000+0  13758-3 0  9999
2 65139  51.9044 334.2170 0000671  78.5735 281.5303 14.79928760 26843
KUIPER-00102            
1 65140U 25171J   26027.15208193  .00006207  00000+0  84111-3 0  9990
2 65140  51.8998 336.7659 0000787  93.1304 266.9748 14.79999616 26808
KUIPER-00103            
1 65141U 25171K   26027.09964232 -.00002237  00000+0 -26524-3 0  9992
2 65141  51.9018 354.4895 0002667  34.0530 326.0603 14.79816910 26551
